ONEWEB-0198             
1 48216U 21031G   26153.84044007  .00000248  00000+0  63388-3 0  9996
2 48216  87.8942 292.5736 0001730 113.6186 246.5126 13.14501677246601
ONEWEB-0189             
1 48217U 21031H   26153.77687235  .00000004  00000+0 -23789-4 0  9998
2 48217  87.8956 292.5705 0001687 106.9699 253.1616 13.14502191246338
ONEWEB-0196             
1 48218U 21031J   26154.43973156  .00000234  00000+0  59533-3 0  9992
2 48218  87.8951 292.4467 0001899 111.6360 248.4973 13.14502224246421
ONEWEB-0183             
1 48219U 21031K   26154.33823973  .00000042  00000+0  79212-4 0  9997
2 48219  87.8957 292.4654 0002008  96.2894 263.8465 13.14503567246506
ONEWEB-0185             
1 48220U 21031L   26154.44051372  .00000220  00000+0  55762-3 0  9998
2 48220  87.8960 292.4377 0002185 109.6007 250.5359 13.14501414246442
ONEWEB-0187             
1 48221U 21031M   26154.72503326 -.00000116  00000+0 -34659-3 0  9999
2 48221  87.8948 292.3984 0001984 106.0400 254.0949 13.14502138246499
ONEWEB-0192             
1 48222U 21031N   26154.31444482  .00000066  00000+0  14458-3 0  9999
2 48222  87.8950 292.4705 0001753 101.0553 259.0774 13.14504273246351
ONEWEB-0219             
1 48223U 21031P   26155.74006818  .00000117  00000+0  28055-3 0  9990
2 48223  87.8952 292.1782 0002051 105.5264 254.6092 13.14503650246741
ONEWEB-0202             
1 48224U 21031Q   26153.81810395  .00000041  00000+0  77347-4 0  9995
2 48224  87.8954 292.5731 0001350 115.9239 244.2030 13.14501976246476
ONEWEB-0204             
1 48225U 21031R   26154.46114018  .00000213  00000+0  53904-3 0  9990
2 48225  87.8957 292.4397 0002194  97.3442 262.7937 13.14502191246452
ONEWEB-0205             
1 48226U 21031S   26154.43655813  .00000261  00000+0  66866-3 0  9995
2 48226  87.8952 292.4359 0001911 110.7659 249.3676 13.14504177246460
ONEWEB-0206             
1 48227U 21031T   26154.33348417 -.00000193  00000+0 -55398-3 0  9998
2 48227  87.8956 292.4595 0001832  94.1574 265.9765 13.14502795246401
ONEWEB-0182             
1 48228U 21031U   26154.32871944 -.00000110  00000+0 -33203-3 0  9994
2 48228  87.8955 292.4685 0002073  97.7315 262.4050 13.14502155246613
ONEWEB-0186             
1 48229U 21031V   26154.33981798 -.00000147  00000+0 -43111-3 0  9994
2 48229  87.8961 292.4559 0001877 102.6301 257.5039 13.14501645246562
ONEWEB-0181             
1 48230U 21031W   26153.78480268 -.00000121  00000+0 -36094-3 0  9994
2 48230  87.8945 292.5986 0001819 105.7316 254.4015 13.14502025246346
ONEWEB-0188             
1 48231U 21031X   26154.43180718  .00000054  00000+0  11203-3 0  9993
2 48231  87.8945 292.4683 0001906  99.7369 260.3976 13.14503267246337
ONEWEB-0220             
1 48232U 21031Y   26154.31919292 -.00001654  00000+0 -44967-2 0  9999
2 48232  87.8955 292.4548 0001708 127.1212 233.0074 13.14507945246582
ONEWEB-0165             
1 48233U 21031Z   26152.36869335  .00000131  00000+0  31819-3 0  9995
2 48233  87.8951 292.8644 0001625 108.3873 251.7434 13.14502513246282
ONEWEB-0199             
1 48234U 21031AA  26154.33189543 -.00000194  00000+0 -55882-3 0  9998
2 48234  87.8966 292.4576 0001875  94.0433 266.0911 13.14501975246447
ONEWEB-0203             
1 48235U 21031AB  26154.32237807 -.00000105  00000+0 -31691-3 0  9999
2 48235  87.8967 292.4624 0001658 104.1529 255.9785 13.14501644246451
ONEWEB-0197             
1 48236U 21031AC  26154.44911425  .00000274  00000+0  70394-3 0  9996
2 48236  87.8950 292.4255 0002153  99.8500 260.2873 13.14503298246380
ONEWEB-0194             
1 48237U 21031AD  26153.81968304  .00000050  00000+0  99849-4 0  9994
2 48237  87.8953 292.5724 0001750  92.3604 267.7727 13.14501382246473
ONEWEB-0193             
1 48238U 21031AE  26155.73848538  .00000118  00000+0  28450-3 0  9998
2 48238  87.8961 292.1819 0001747 103.0197 257.1128 13.14503165246678
ONEWEB-0191             
1 48239U 21031AF  26154.30335449  .00000292  00000+0  75434-3 0  9990
2 48239  87.8958 292.4645 0001984 100.9455 259.1898 13.14501589246349
ONEWEB-0195             
1 48240U 21031AG  26154.28033796 -.00000101  00000+0 -30627-3 0  9995
2 48240  87.8970 292.4685 0001699 120.9402 239.1895 13.14502061246325
ONEWEB-0201             
1 48241U 21031AH  26153.81189562 -.00000064  00000+0 -20662-3 0  9993
2 48241  87.8950 292.5800 0002130 101.7639 258.3729 13.14504025246493
ONEWEB-0207             
1 48242U 21031AJ  26154.32475612 -.00000140  00000+0 -41117-3 0  9998
2 48242  87.8961 292.4619 0002109 101.5090 258.6277 13.14501720246476
ONEWEB-0208             
1 48243U 21031AK  26154.45876567  .00000169  00000+0  42111-3 0  9991
2 48243  87.8956 292.4422 0001678 107.5541 252.5772 13.14502474246504
ONEWEB-0200             
1 48244U 21031AL  26155.18342904  .00003507  00000+0  94177-2 0  9993
2 48244  87.8906 292.2919 0001986 154.1330 205.9900 13.14520711246526
ONEWEB-0217             
1 48245U 21031AM  26154.28590624  .00000258  00000+0  66225-3 0  9992
2 48245  87.8953 292.4644 0001601 107.6974 252.4330 13.14501872246359
