OBJECT_NAME,OBJECT_ID,EPOCH,MEAN_MOTION,ECCENTRICITY,INCLINATION,RA_OF_ASC_NODE,ARG_OF_PERICENTER,MEAN_ANOMALY,EPHEMERIS_TYPE,CLASSIFICATION_TYPE,NORAD_CAT_ID,ELEMENT_SET_NO,REV_AT_EPOCH,BSTAR,MEAN_MOTION_DOT,MEAN_MOTION_DDOT
ONEWEB-0198,2021-031G,2026-06-02T20:10:14.022048,13.14501677,.000173,87.8942,292.5736,113.6186,246.5126,0,U,48216,999,24660,.63388483E-3,.248E-5,0
ONEWEB-0189,2021-031H,2026-06-02T18:38:41.771040,13.14502191,.0001687,87.8956,292.5705,106.9699,253.1616,0,U,48217,999,24633,-.23789E-4,.4E-7,0
ONEWEB-0196,2021-031J,2026-06-03T10:33:12.806784,13.14502224,.00018999,87.8951,292.4467,111.6360,248.4973,0,U,48218,999,24642,.595333E-3,.234E-5,0
ONEWEB-0183,2021-031K,2026-06-03T08:07:03.912672,13.14503567,.00020081,87.8957,292.4654,96.2894,263.8465,0,U,48219,999,24650,.79212296E-4,.42E-6,0
ONEWEB-0185,2021-031L,2026-06-03T10:34:20.385408,13.14501414,.00021853,87.8960,292.4377,109.6007,250.5359,0,U,48220,999,24644,.55762375E-3,.22E-5,0
ONEWEB-0187,2021-031M,2026-06-03T17:24:02.873664,13.14502138,.00019844,87.8948,292.3984,106.0400,254.0949,0,U,48221,999,24649,-.34658984E-3,-.116E-5,0
ONEWEB-0192,2021-031N,2026-06-03T07:32:48.032448,13.14504273,.00017532,87.8950,292.4705,101.0553,259.0774,0,U,48222,999,24635,.14458257E-3,.66E-6,0
ONEWEB-0219,2021-031P,2026-06-04T17:45:41.890752,13.14503650,.00020512,87.8952,292.1782,105.5264,254.6092,0,U,48223,999,24674,.28055455E-3,.117E-5,0
ONEWEB-0202,2021-031Q,2026-06-02T19:38:04.181280,13.14501976,.00013502,87.8954,292.5731,115.9239,244.2030,0,U,48224,999,24647,.77347249E-4,.41E-6,0
ONEWEB-0204,2021-031R,2026-06-03T11:04:02.511552,13.14502191,.00021942,87.8957,292.4397,97.3442,262.7937,0,U,48225,999,24645,.53903883E-3,.213E-5,0
ONEWEB-0205,2021-031S,2026-06-03T10:28:38.622432,13.14504177,.00019117,87.8952,292.4359,110.7659,249.3676,0,U,48226,999,24646,.66866415E-3,.261E-5,0
ONEWEB-0206,2021-031T,2026-06-03T08:00:13.032288,13.14502795,.0001832,87.8956,292.4595,94.1574,265.9765,0,U,48227,999,24640,-.55398371E-3,-.193E-5,0
ONEWEB-0182,2021-031U,2026-06-03T07:53:21.359616,13.14502155,.00020731,87.8955,292.4685,97.7315,262.4050,0,U,48228,999,24661,-.33203392E-3,-.11E-5,0
ONEWEB-0186,2021-031V,2026-06-03T08:09:20.273472,13.14501645,.00018777,87.8961,292.4559,102.6301,257.5039,0,U,48229,999,24656,-.43110561E-3,-.147E-5,0
ONEWEB-0181,2021-031W,2026-06-02T18:50:06.951552,13.14502025,.00018198,87.8945,292.5986,105.7316,254.4015,0,U,48230,999,24634,-.36094127E-3,-.121E-5,0
ONEWEB-0188,2021-031X,2026-06-03T10:21:48.140352,13.14503267,.00019062,87.8945,292.4683,99.7369,260.3976,0,U,48231,999,24633,.11202682E-3,.54E-6,0
ONEWEB-0220,2021-031Y,2026-06-03T07:39:38.268288,13.14507945,.00017084,87.8955,292.4548,127.1212,233.0074,0,U,48232,999,24658,-.44966605E-2,-.1654E-4,0
ONEWEB-0165,2021-031Z,2026-06-01T08:50:55.105440,13.14502513,.00016253,87.8951,292.8644,108.3873,251.7434,0,U,48233,999,24628,.31819132E-3,.131E-5,0
ONEWEB-0199,2021-031AA,2026-06-03T07:57:55.765152,13.14501975,.0001875,87.8966,292.4576,94.0433,266.0911,0,U,48234,999,24644,-.55881666E-3,-.194E-5,0
ONEWEB-0203,2021-031AB,2026-06-03T07:44:13.465248,13.14501644,.00016586,87.8967,292.4624,104.1529,255.9785,0,U,48235,999,24645,-.31691003E-3,-.105E-5,0
ONEWEB-0197,2021-031AC,2026-06-03T10:46:43.471200,13.14503298,.00021536,87.8950,292.4255,99.8500,260.2873,0,U,48236,999,24638,.70393662E-3,.274E-5,0
ONEWEB-0194,2021-031AD,2026-06-02T19:40:20.614656,13.14501382,.00017501,87.8953,292.5724,92.3604,267.7727,0,U,48237,999,24647,.99848517E-4,.5E-6,0
ONEWEB-0193,2021-031AE,2026-06-04T17:43:25.136832,13.14503165,.00017472,87.8961,292.1819,103.0197,257.1128,0,U,48238,999,24667,.28450121E-3,.118E-5,0
ONEWEB-0191,2021-031AF,2026-06-03T07:16:49.827936,13.14501589,.00019845,87.8958,292.4645,100.9455,259.1898,0,U,48239,999,24634,.75433853E-3,.292E-5,0
ONEWEB-0195,2021-031AG,2026-06-03T06:43:41.199744,13.14502061,.00016996,87.8970,292.4685,120.9402,239.1895,0,U,48240,999,24632,-.30626936E-3,-.101E-5,0
ONEWEB-0201,2021-031AH,2026-06-02T19:29:07.781568,13.14504025,.00021302,87.8950,292.5800,101.7639,258.3729,0,U,48241,999,24649,-.20662482E-3,-.64E-6,0
ONEWEB-0207,2021-031AJ,2026-06-03T07:47:38.928768,13.14501720,.00021092,87.8961,292.4619,101.5090,258.6277,0,U,48242,999,24647,-.41117297E-3,-.14E-5,0
ONEWEB-0208,2021-031AK,2026-06-03T11:00:37.353888,13.14502474,.00016784,87.8956,292.4422,107.5541,252.5772,0,U,48243,999,24650,.4211089E-3,.169E-5,0
ONEWEB-0200,2021-031AL,2026-06-04T04:24:08.269056,13.14520711,.00019861,87.8906,292.2919,154.1330,205.9900,0,U,48244,999,24652,.94177077E-2,.3507E-4,0
ONEWEB-0217,2021-031AM,2026-06-03T06:51:42.299136,13.14501872,.00016014,87.8953,292.4644,107.6974,252.4330,0,U,48245,999,24635,.66225405E-3,.258E-5,0
